STARLINK-30816          
1 58162C 23166N   26123.20951389 -.00035416  00000+0 -11936-2 0  1232
2 58162  53.1581 326.3106 0001222  83.9225  52.4985 15.30210182    11
STARLINK-30763          
1 58163C 23166P   26123.20673611 -.00037044  00000+0 -12488-2 0  1234
2 58163  53.1600 313.8137 0001142  81.2901   1.9874 15.30203795    10
STARLINK-30815          
1 58164C 23166Q   26123.20812500  .00690440  00000+0  22650-1 0  1231
2 58164  53.1585 326.4228 0000942  74.1185   2.6302 15.30718040    14
STARLINK-30814          
1 58165C 23166R   26123.17618056 -.00014526  00000+0 -48954-3 0  1232
2 58165  53.1601 326.2497 0001055  83.1402 340.0741 15.30202171    17
STARLINK-30789          
1 58166C 23166S   26123.21715278 -.00053415  00000+0 -17999-2 0  1236
2 58166  53.1578 326.3467 0001164  90.1047  53.5205 15.30225292    13
STARLINK-30811          
1 58167C 23166T   26123.18312500 -.00011445  00000+0 -36866-3 0  1236
2 58167  53.1600 326.2367 0000726  56.9328  35.1628 15.31655139    16
STARLINK-30812          
1 58168C 23166U   26123.24006944 -.00051565  00000+0 -17377-2 0  1238
2 58168  53.1599 325.9883 0001109  87.6953 310.2022 15.30220764    10
STARLINK-30771          
1 58169C 23166V   26123.20812500 -.00045718  00000+0 -15407-2 0  1233
2 58169  53.1583 326.2839 0001115  85.8387  60.3836 15.30218855    11
STARLINK-30764          
1 58170C 23166W   26123.22965278 -.00052464  00000+0 -17682-2 0  1231
2 58170  53.1587 326.1496 0000786  84.0811 198.2487 15.30218269    13
STARLINK-30752          
1 58171C 23166X   26123.16437500 -.00021021  00000+0 -70855-3 0  1234
2 58171  53.1588 326.4098 0001072  82.7793 217.2060 15.30199088    15
STARLINK-30753          
1 58175C 23167A   26123.21298611  .00033234  00000+0  12054-2 0  1236
2 58175  42.9989 195.5926 0001438 258.9384  61.7011 15.27516456    10
STARLINK-30824          
1 58176C 23167B   26123.17062500  .00039492  00000+0  14300-2 0  1236
2 58176  42.9989 195.8801 0001384 264.3156 161.7276 15.27567288    17
STARLINK-30791          
1 58177C 23167C   26123.17687500  .00042153  00000+0  15264-2 0  1238
2 58177  43.0024 195.4452 0001488 265.6610 357.4965 15.27566433    12
STARLINK-30810          
1 58178C 23167D   26123.18729167  .00038408  00000+0  13906-2 0  1235
2 58178  43.0033 195.2297 0001360 263.0875 128.1778 15.27571833    17
STARLINK-30819          
1 58179C 23167E   26123.18729167  .00033935  00000+0  12288-2 0  1238
2 58179  42.9986 195.6442 0001455 258.5403 315.8687 15.27568939    17
STARLINK-30806          
1 58180C 23167F   26123.20395833  .00084781  00000+0  29897-2 0  1231
2 58180  42.9986 195.4471 0001733 293.5162  53.8582 15.28410237    10
STARLINK-30821          
1 58181C 23167G   26123.18243056  .00039893  00000+0  14446-2 0  1236
2 58181  43.0009 195.5154 0001447 256.1970 355.1104 15.27566215    17
STARLINK-30778          
1 58182C 23167H   26123.17270833  .00036559  00000+0  13236-2 0  1231
2 58182  42.9996 195.6037 0001412 259.4813 284.1555 15.27573600    13
STARLINK-30809          
1 58183C 23167J   26123.18173611  .00038980  00000+0  14120-2 0  1232
2 58183  43.0014 196.0111 0001700 255.2963 147.0182 15.27555864    10
STARLINK-30801          
1 58184C 23167K   26123.19284722  .00031068  00000+0  11254-2 0  1235
2 58184  43.0023 195.9972 0001442 252.6670 189.6030 15.27558788    15
STARLINK-30793          
1 58185C 23167L   26123.21784722  .00028041  00000+0  10161-2 0  1237
2 58185  42.9986 195.4470 0001609 262.0006 127.7469 15.27549902    10
STARLINK-30755          
1 58186C 23167M   26123.21784722  .00022602  00000+0  81856-3 0  1235
2 58186  43.0022 195.2022 0001537 253.5178 242.2887 15.27570179    17
STARLINK-30760          
1 58187C 23167N   26123.22201389  .00026590  00000+0  96304-3 0  1234
2 58187  43.0004 195.4701 0001390 268.6063 122.8326 15.27566647    17
STARLINK-30826          
1 58188C 23167P   26123.16298611  .00042244  00000+0  15305-2 0  1237
2 58188  42.9986 195.7431 0001526 267.3230 187.3962 15.27547997    10
STARLINK-30796          
1 58189C 23167Q   26123.18381944  .00042206  00000+0  15287-2 0  1239
2 58189  43.0026 195.3385 0001534 253.3050  76.3909 15.27556278    16
STARLINK-30820          
1 58190C 23167R   26123.19076389  .00038122  00000+0  13802-2 0  1239
2 58190  43.0033 195.2479 0001165 277.4713 111.6971 15.27573675    14
STARLINK-30785          
1 58191C 23167S   26123.19354167  .00030579  00000+0  11070-2 0  1236
2 58191  42.9989 195.7207 0001283 281.1754 278.1172 15.27581116    16
STARLINK-30807          
1 58192C 23167T   26123.24770833  .00012351  00000+0  44720-3 0  1232
2 58192  42.9990 195.3151 0001403 268.0213 271.9512 15.27585027    15
STARLINK-30822          
1 58193C 23167U   26123.24631944  .00012661  00000+0  45836-3 0  1235
2 58193  42.9994 195.5584 0001384 262.5660 170.7186 15.27586900    19
STARLINK-30830          
1 58194C 23167V   26123.20881944  .00025494  00000+0  92287-3 0  1239
2 58194  43.0028 195.1447 0001409 259.7117 221.8050 15.27584296    11
STARLINK-30827          
1 58195C 23167W   26123.24354167  .00016878  00000+0  61207-3 0  1230
2 58195  43.0036 194.9187 0001461 244.5488  89.4611 15.27530814    18
STARLINK-30798          
1 58196C 23167X   26123.17479167  .00037156  00000+0  13458-2 0  1237
2 58196  42.9989 195.8778 0001600 255.1957 179.6356 15.27557884    18
STARLINK-30762          
1 58197C 23167Y   26123.20534722  .00023998  00000+0  86922-3 0  1237
2 58197  43.0010 195.8382 0001264 255.5571 290.9045 15.27566330    17
STARLINK-30800          
1 58206C 23170A   26123.19145833  .00008900  00000+0  32261-3 0  1234
2 58206  43.0020 246.7996 0001736 262.3221 341.4901 15.27548402    11
STARLINK-30845          
1 58207C 23170B   26123.20395833  .00773010  00000+0  55456-1 0  1234
2 58207  43.0000 259.0274 0001984 266.8613 245.4090 15.03208498    19
STARLINK-30841          
1 58208C 23170C   26123.24909722  .00047548  00000+0  17229-2 0  1234
2 58208  43.0037 246.3282 0001576 271.1215 346.6238 15.27541803    16
STARLINK-30839          
1 58209C 23170D   26123.21298611  .00053672  00000+0  19427-2 0  1237
2 58209  43.0010 245.9908 0001444 277.9268  14.4264 15.27572895    18
STARLINK-30846          
1 58210C 23170E   26123.23173611  .00055851  00000+0  20225-2 0  1232
2 58210  43.0005 246.6769 0001619 260.9145 162.1860 15.27557573    16
STARLINK-30838          
1 58211C 23170F   26123.23590278  .00036034  00000+0  13062-2 0  1238
2 58211  43.0000 245.9982 0001240 259.7902 102.1870 15.27534145    13
STARLINK-30837          
1 58212C 23170G   26123.17479167  .00035922  00000+0  13005-2 0  1237
2 58212  43.0011 246.9253 0001516 262.6917 228.0992 15.27575912    13
STARLINK-30813          
1 58213C 23170H   26123.20743056  .00025830  00000+0  93612-3 0  1233
2 58213  42.9992 246.2113 0001563 258.6544 285.3339 15.27545521    15
STARLINK-30805          
1 58214C 23170J   26123.24493056  .00055202  00000+0  20005-2 0  1231
2 58214  42.9993 245.8468 0001425 250.0853 204.0444 15.27532522    13
STARLINK-30851          
1 58215C 23170K   26123.20326389  .00045600  00000+0  16511-2 0  1230
2 58215  42.9995 246.1284 0001565 263.1136 300.3623 15.27566836    14
STARLINK-30818          
1 58217C 23170M   26123.19840278  .00019389  00000+0  70271-3 0  1237
2 58217  42.9986 246.2430 0001579 258.1358 243.2247 15.27547882    12
STARLINK-30794          
1 58218C 23170N   26123.23173611  .00057347  00000+0  20779-2 0  1236
2 58218  42.9992 245.9201 0001349 261.0899 113.3086 15.27537209    10
STARLINK-30835          
1 58219C 23170P   26123.16923611  .00037388  00000+0  13540-2 0  1233
2 58219  43.0016 246.5600 0001515 261.5419  15.5460 15.27564608    10
STARLINK-30792          
1 58220C 23170Q   26123.23590278  .00042101  00000+0  27988-2 0  1232
2 58220  42.9998 257.9495 0005801 308.9935  32.4062 15.06393452    18
STARLINK-30836          
1 58221C 23170R   26123.21506944  .00049447  00000+0  17902-2 0  1233
2 58221  43.0027 246.3855 0001506 265.2713 228.7709 15.27568060    13
STARLINK-30855          
1 58222C 23170S   26123.21298611  .00032425  00000+0  11754-2 0  1230
2 58222  43.0029 246.5748 0001752 262.8875 134.8594 15.27533743    13
STARLINK-30840          
1 58223C 23170T   26123.18659722  .00039899  00000+0  14445-2 0  1233
2 58223  43.0027 246.7733 0001611 264.9546 326.2186 15.27572196    19
STARLINK-30875          
1 58224C 23170U   26123.16993056  .00005205  00000+0  18866-3 0  1239
2 58224  43.0000 246.3347 0001364 251.0790 114.7698 15.27553739    11
STARLINK-30872          
1 58225C 23170V   26123.24006944  .00008767  00000+0  31751-3 0  1234
2 58225  43.0018 104.2403 0001222 262.2604   4.0699 15.27575475    10
STARLINK-30865          
1 58226C 23170W   26123.21298611  .00052139  00000+0  18878-2 0  1232
2 58226  43.0024 235.0924 0001521 257.8710 330.5226 15.27564699    18
STARLINK-30874          
1 58227C 23170X   26123.18659722  .00021746  00000+0  78827-3 0  1234
2 58227  43.0029 246.5881 0001438 265.2393  50.8662 15.27541493    13
STARLINK-30871          
1 58228C 23170Y   26123.20048611  .00019142  00000+0  69379-3 0  1236
2 58228  43.0043 246.5498 0001546 257.9470 113.4141 15.27546994    17
STARLINK-30861          
1 58230C 23171A   26123.23590278  .00023030  00000+0  85487-3 0  1233
2 58230  42.9952 338.2331 0005288 244.4383 140.3633 15.26748405    18
STARLINK-30867          
1 58231C 23171B   26123.21090278 -.00086393  00000+0 -31284-2 0  1235
2 58231  43.0050 337.0158 0001879 272.3760 190.8211 15.27628119    17
STARLINK-30880          
1 58232C 23171C   26123.20187500 -.00078085  00000+0 -28274-2 0  1234
2 58232  43.0044 337.0220 0001988 268.7778 165.9275 15.27625495    17
STARLINK-30777          
1 58233C 23171D   26123.23798611 -.00010216  00000+0 -37000-3 0  1239
2 58233  43.0036 337.5163 0001520 263.2053  73.1969 15.27584398    14
